[{"OBJECT_NAME":"KOSEN-1","OBJECT_ID":"2021-102H","EPOCH":"2026-03-09T22:29:54.100608","MEAN_MOTION":15.25323573,"ECCENTRICITY":0.00138659,"INCLINATION":97.3334,"RA_OF_ASC_NODE":113.0569,"ARG_OF_PERICENTER":191.9191,"MEAN_ANOMALY":168.1721,"EPHEMERIS_TYPE":0,"CLASSIFICATION_TYPE":"U","NORAD_CAT_ID":49402,"ELEMENT_SET_NO":999,"REV_AT_EPOCH":23888,"BSTAR":0.00040411561,"MEAN_MOTION_DOT":0.00010142,"MEAN_MOTION_DDOT":0},{"OBJECT_NAME":"STARLINK-31691","OBJECT_ID":"2024-097X","EPOCH":"2026-03-09T20:01:24.483360","MEAN_MOTION":15.27587247,"ECCENTRICITY":0.00019406,"INCLINATION":43.0044,"RA_OF_ASC_NODE":273.13,"ARG_OF_PERICENTER":276.3289,"MEAN_ANOMALY":83.7342,"EPHEMERIS_TYPE":0,"CLASSIFICATION_TYPE":"U","NORAD_CAT_ID":59856,"ELEMENT_SET_NO":999,"REV_AT_EPOCH":10194,"BSTAR":-6.2592988e-5,"MEAN_MOTION_DOT":-1.985e-5,"MEAN_MOTION_DDOT":0}]
